HAWK-12A                
1 64623U 25138C   26194.99730725  .00001936  00000+0  97216-4 0  9991
2 64623  97.4410 197.3338 0015159  50.3904 309.8666 15.18396973 57938
HAWK-13A                
1 67392U 26004AF  26195.00116544  .00002514  00000+0  12215-3 0  9998
2 67392  97.4445 193.4914 0004056 224.6357 135.4552 15.19352786 27839
HAWK-13C                
1 67393U 26004AG  26194.93515503  .00002496  00000+0  12130-3 0  9993
2 67393  97.4588 193.8481 0003860 228.9436 131.1465 15.19352390 27824
HAWK-13B                
1 67396U 26004AK  26195.00092609  .00002463  00000+0  11974-3 0  9991
2 67396  97.4527 193.7372 0005150 229.7288 130.3497 15.19351806 27834
HAWK-14B                
1 68436U 26067W   26194.84052089  .00002433  00000+0  12152-3 0  9991
2 68436  97.4560 152.9113 0001694   4.7469 355.3781 15.18424410 15987
HAWK-14C                
1 68441U 26067AB  26194.77471902  .00002371  00000+0  11849-3 0  9991
2 68441  97.4497 152.7276 0002719  23.0439 337.0916 15.18423757 15979
HAWK-14A                
1 68448U 26067AJ  26194.84074495  .00002479  00000+0  12373-3 0  9994
2 68448  97.4622 153.0368 0003404  19.7731 340.3634 15.18425794 15989
