{"fetched_at":"2026-07-14T17:40:46.625Z","source":"https://celestrak.org/NORAD/elements/gp.php?NAME=HAWK&FORMAT=JSON","constellation":"hawkeye-360","records":[{"OBJECT_NAME":"HAWK-12A","OBJECT_ID":"2025-138C","EPOCH":"2026-07-13T23:56:07.346400","CLASSIFICATION_TYPE":"U","MEAN_MOTION":15.18396973,"ECCENTRICITY":0.0015159,"INCLINATION":97.441,"RA_OF_ASC_NODE":197.3338,"ARG_OF_PERICENTER":50.3904,"MEAN_ANOMALY":309.8666,"EPHEMERIS_TYPE":0,"NORAD_CAT_ID":64623,"ELEMENT_SET_NO":999,"REV_AT_EPOCH":5793,"BSTAR":0.000097216,"MEAN_MOTION_DOT":0.00001936,"MEAN_MOTION_DDOT":0},{"OBJECT_NAME":"HAWK-13A","OBJECT_ID":"2026-004AF","EPOCH":"2026-07-14T00:01:40.694016","CLASSIFICATION_TYPE":"U","MEAN_MOTION":15.19352786,"ECCENTRICITY":0.0004056,"INCLINATION":97.4445,"RA_OF_ASC_NODE":193.4914,"ARG_OF_PERICENTER":224.6357,"MEAN_ANOMALY":135.4552,"EPHEMERIS_TYPE":0,"NORAD_CAT_ID":67392,"ELEMENT_SET_NO":999,"REV_AT_EPOCH":2783,"BSTAR":0.00012215,"MEAN_MOTION_DOT":0.00002514,"MEAN_MOTION_DDOT":0},{"OBJECT_NAME":"HAWK-13C","OBJECT_ID":"2026-004AG","EPOCH":"2026-07-13T22:26:37.394592","CLASSIFICATION_TYPE":"U","MEAN_MOTION":15.1935239,"ECCENTRICITY":0.000386,"INCLINATION":97.4588,"RA_OF_ASC_NODE":193.8481,"ARG_OF_PERICENTER":228.9436,"MEAN_ANOMALY":131.1465,"EPHEMERIS_TYPE":0,"NORAD_CAT_ID":67393,"ELEMENT_SET_NO":999,"REV_AT_EPOCH":2782,"BSTAR":0.0001213,"MEAN_MOTION_DOT":0.00002496,"MEAN_MOTION_DDOT":0},{"OBJECT_NAME":"HAWK-13B","OBJECT_ID":"2026-004AK","EPOCH":"2026-07-14T00:01:20.014176","CLASSIFICATION_TYPE":"U","MEAN_MOTION":15.19351806,"ECCENTRICITY":0.000515,"INCLINATION":97.4527,"RA_OF_ASC_NODE":193.7372,"ARG_OF_PERICENTER":229.7288,"MEAN_ANOMALY":130.3497,"EPHEMERIS_TYPE":0,"NORAD_CAT_ID":67396,"ELEMENT_SET_NO":999,"REV_AT_EPOCH":2783,"BSTAR":0.00011974,"MEAN_MOTION_DOT":0.00002463,"MEAN_MOTION_DDOT":0},{"OBJECT_NAME":"HAWK-14B","OBJECT_ID":"2026-067W","EPOCH":"2026-07-13T20:10:21.004896","CLASSIFICATION_TYPE":"U","MEAN_MOTION":15.1842441,"ECCENTRICITY":0.0001694,"INCLINATION":97.456,"RA_OF_ASC_NODE":152.9113,"ARG_OF_PERICENTER":4.7469,"MEAN_ANOMALY":355.3781,"EPHEMERIS_TYPE":0,"NORAD_CAT_ID":68436,"ELEMENT_SET_NO":999,"REV_AT_EPOCH":1598,"BSTAR":0.00012152,"MEAN_MOTION_DOT":0.00002433,"MEAN_MOTION_DDOT":0},{"OBJECT_NAME":"HAWK-14C","OBJECT_ID":"2026-067AB","EPOCH":"2026-07-13T18:35:35.723328","CLASSIFICATION_TYPE":"U","MEAN_MOTION":15.18423757,"ECCENTRICITY":0.0002719,"INCLINATION":97.4497,"RA_OF_ASC_NODE":152.7276,"ARG_OF_PERICENTER":23.0439,"MEAN_ANOMALY":337.0916,"EPHEMERIS_TYPE":0,"NORAD_CAT_ID":68441,"ELEMENT_SET_NO":999,"REV_AT_EPOCH":1597,"BSTAR":0.00011849,"MEAN_MOTION_DOT":0.00002371,"MEAN_MOTION_DDOT":0},{"OBJECT_NAME":"HAWK-14A","OBJECT_ID":"2026-067AJ","EPOCH":"2026-07-13T20:10:40.363680","CLASSIFICATION_TYPE":"U","MEAN_MOTION":15.18425794,"ECCENTRICITY":0.0003404,"INCLINATION":97.4622,"RA_OF_ASC_NODE":153.0368,"ARG_OF_PERICENTER":19.7731,"MEAN_ANOMALY":340.3634,"EPHEMERIS_TYPE":0,"NORAD_CAT_ID":68448,"ELEMENT_SET_NO":999,"REV_AT_EPOCH":1598,"BSTAR":0.00012373,"MEAN_MOTION_DOT":0.00002479,"MEAN_MOTION_DDOT":0}]}
